{
  "norad_id": 42839,
  "name": "LEMUR-2-MONSON",
  "history": [
    {
      "epoch": "2026-03-28T11:40:35.640768Z",
      "apogee_km": 492.81784573728146,
      "perigee_km": 484.9518095741387,
      "latitude_deg": -3.5795106131568234e-05,
      "longitude_deg": -92.3261739006506,
      "height_km": 491.4736580196578,
      "semi_major_axis_km": 6867.02182765571,
      "eccentricity": 0.00057274,
      "inclination_deg": 97.405,
      "raan_deg": 268.7286,
      "arg_perigee_deg": 277.5278,
      "mean_anomaly_deg": 82.5309,
      "mean_motion_rev_day": 15.25633162
    },
    {
      "epoch": "2026-03-29T00:16:10.189920Z",
      "apogee_km": 492.7619766182179,
      "perigee_km": 484.88420000490714,
      "latitude_deg": 4.018253655541478e-05,
      "longitude_deg": 78.7823880137596,
      "height_km": 491.5614216967704,
      "semi_major_axis_km": 6866.960088311562,
      "eccentricity": 0.0005736,
      "inclination_deg": 97.4048,
      "raan_deg": 269.2483,
      "arg_perigee_deg": 275.3292,
      "mean_anomaly_deg": 84.7292,
      "mean_motion_rev_day": 15.25653737
    },
    {
      "epoch": "2026-03-30T01:27:17.136000Z",
      "apogee_km": 492.64769901376985,
      "perigee_km": 484.6904441380284,
      "latitude_deg": -2.5662622439428527e-05,
      "longitude_deg": 61.008233106142676,
      "height_km": 491.7195976572447,
      "semi_major_axis_km": 6866.806071575899,
      "eccentricity": 0.0005794,
      "inclination_deg": 97.4046,
      "raan_deg": 270.2874,
      "arg_perigee_deg": 270.7755,
      "mean_anomaly_deg": 89.2819,
      "mean_motion_rev_day": 15.25705066
    },
    {
      "epoch": "2026-03-30T01:27:17.136864Z",
      "apogee_km": 492.64776467959837,
      "perigee_km": 484.69037247121196,
      "latitude_deg": -2.4535189578752315e-05,
      "longitude_deg": 61.00822935057266,
      "height_km": 491.71959372933077,
      "semi_major_axis_km": 6866.806068575404,
      "eccentricity": 0.00057941,
      "inclination_deg": 97.4046,
      "raan_deg": 270.2874,
      "arg_perigee_deg": 270.7755,
      "mean_anomaly_deg": 89.2819,
      "mean_motion_rev_day": 15.25705067
    },
    {
      "epoch": "2026-03-30T10:53:56.533920Z",
      "apogee_km": 492.6014655070494,
      "perigee_km": 484.6325974535166,
      "latitude_deg": 7.490463011189296e-05,
      "longitude_deg": -80.65400011906013,
      "height_km": 491.7371274242709,
      "semi_major_axis_km": 6866.754031480283,
      "eccentricity": 0.00058025,
      "inclination_deg": 97.4046,
      "raan_deg": 270.6772,
      "arg_perigee_deg": 269.7745,
      "mean_anomaly_deg": 90.2829,
      "mean_motion_rev_day": 15.2572241
    },
    {
      "epoch": "2026-03-30T18:46:08.983488Z",
      "apogee_km": 492.5503299143156,
      "perigee_km": 484.5826192046443,
      "latitude_deg": 2.4297287777168138e-05,
      "longitude_deg": 161.29541905661068,
      "height_km": 491.80720069698725,
      "semi_major_axis_km": 6866.703474559479,
      "eccentricity": 0.00058017,
      "inclination_deg": 97.4046,
      "raan_deg": 271.0017,
      "arg_perigee_deg": 268.0399,
      "mean_anomaly_deg": 92.0175,
      "mean_motion_rev_day": 15.2573926
    },
    {
      "epoch": "2026-03-31T18:22:44.744160Z",
      "apogee_km": 492.38975092412875,
      "perigee_km": 484.4808329582711,
      "latitude_deg": -7.5067383174494395e-06,
      "longitude_deg": 167.15099617849526,
      "height_km": 491.96014782860215,
      "semi_major_axis_km": 6866.572291941199,
      "eccentricity": 0.0005759,
      "inclination_deg": 97.4047,
      "raan_deg": 271.9759,
      "arg_perigee_deg": 263.8985,
      "mean_anomaly_deg": 96.1597,
      "mean_motion_rev_day": 15.25782983
    },
    {
      "epoch": "2026-04-01T17:59:18.169440Z",
      "apogee_km": 492.2897685487633,
      "perigee_km": 484.34802565817336,
      "latitude_deg": -1.8056358483274388e-05,
      "longitude_deg": 173.01632792138332,
      "height_km": 492.12826777549895,
      "semi_major_axis_km": 6866.4558971034685,
      "eccentricity": 0.0005783,
      "inclination_deg": 97.4047,
      "raan_deg": 272.9501,
      "arg_perigee_deg": 259.7771,
      "mean_anomaly_deg": 100.2815,
      "mean_motion_rev_day": 15.25821779
    },
    {
      "epoch": "2026-04-02T11:18:05.200128Z",
      "apogee_km": 492.2147094141028,
      "perigee_km": 484.1957829584717,
      "latitude_deg": -3.214886308722102e-05,
      "longitude_deg": -86.67605309636144,
      "height_km": 492.1831617737944,
      "semi_major_axis_km": 6866.342246186287,
      "eccentricity": 0.00058393,
      "inclination_deg": 97.4046,
      "raan_deg": 273.6647,
      "arg_perigee_deg": 257.4212,
      "mean_anomaly_deg": 102.6373,
      "mean_motion_rev_day": 15.25859662
    },
    {
      "epoch": "2026-04-02T23:53:32.783712Z",
      "apogee_km": 492.124719842318,
      "perigee_km": 484.06458782851314,
      "latitude_deg": 3.767173130100541e-05,
      "longitude_deg": 84.46141283740617,
      "height_km": 492.2389586526878,
      "semi_major_axis_km": 6866.231653835415,
      "eccentricity": 0.00058694,
      "inclination_deg": 97.4049,
      "raan_deg": 274.1842,
      "arg_perigee_deg": 255.052,
      "mean_anomaly_deg": 105.0069,
      "mean_motion_rev_day": 15.25896527
    },
    {
      "epoch": "2026-04-04T10:30:59.079456Z",
      "apogee_km": 491.848125276445,
      "perigee_km": 483.8562511811315,
      "latitude_deg": -4.090426262073438e-05,
      "longitude_deg": -74.89139905875571,
      "height_km": 492.3647993425094,
      "semi_major_axis_km": 6865.989188228788,
      "eccentricity": 0.00058199,
      "inclination_deg": 97.4052,
      "raan_deg": 275.6129,
      "arg_perigee_deg": 249.3714,
      "mean_anomaly_deg": 110.69,
      "mean_motion_rev_day": 15.25977356
    },
    {
      "epoch": "2026-04-05T11:41:47.282784Z",
      "apogee_km": 491.7438847040694,
      "perigee_km": 483.71768526342294,
      "latitude_deg": 4.940371381757638e-05,
      "longitude_deg": -92.5871675127011,
      "height_km": 492.5174079725553,
      "semi_major_axis_km": 6865.867784983746,
      "eccentricity": 0.0005845,
      "inclination_deg": 97.4056,
      "raan_deg": 276.6521,
      "arg_perigee_deg": 245.2233,
      "mean_anomaly_deg": 114.8398,
      "mean_motion_rev_day": 15.2601783
    },
    {
      "epoch": "2026-04-05T17:59:28.971168Z",
      "apogee_km": 491.7587076679747,
      "perigee_km": 483.6522074783179,
      "latitude_deg": -5.4362707896252635e-05,
      "longitude_deg": 172.9902209215474,
      "height_km": 492.59824735380903,
      "semi_major_axis_km": 6865.842457573146,
      "eccentricity": 0.00059035,
      "inclination_deg": 97.4056,
      "raan_deg": 276.9117,
      "arg_perigee_deg": 243.8249,
      "mean_anomaly_deg": 116.2382,
      "mean_motion_rev_day": 15.26026274
    },
    {
      "epoch": "2026-04-07T18:46:32.692512Z",
      "apogee_km": 491.63670586577155,
      "perigee_km": 483.38831454421234,
      "latitude_deg": 8.973309550828523e-06,
      "longitude_deg": 161.2350991481583,
      "height_km": 492.9303617983923,
      "semi_major_axis_km": 6865.649510204992,
      "eccentricity": 0.0006007,
      "inclination_deg": 97.406,
      "raan_deg": 278.9256,
      "arg_perigee_deg": 235.885,
      "mean_anomaly_deg": 124.1819,
      "mean_motion_rev_day": 15.26090604
    },
    {
      "epoch": "2026-04-08T10:30:43.941312Z",
      "apogee_km": 491.57369550696785,
      "perigee_km": 483.3293594913757,
      "latitude_deg": 1.2033238116660412e-05,
      "longitude_deg": -74.80834660394993,
      "height_km": 493.0330419507651,
      "semi_major_axis_km": 6865.5885274991715,
      "eccentricity": 0.00060041,
      "inclination_deg": 97.4061,
      "raan_deg": 279.5753,
      "arg_perigee_deg": 233.0689,
      "mean_anomaly_deg": 127.0,
      "mean_motion_rev_day": 15.26110937
    },
    {
      "epoch": "2026-04-09T11:41:24.614880Z",
      "apogee_km": 491.52336001237927,
      "perigee_km": 483.22021368556307,
      "latitude_deg": -5.168307832310333e-05,
      "longitude_deg": -92.47243699481264,
      "height_km": 493.2175417547095,
      "semi_major_axis_km": 6865.508786848971,
      "eccentricity": 0.0006047,
      "inclination_deg": 97.4062,
      "raan_deg": 280.6147,
      "arg_perigee_deg": 228.6791,
      "mean_anomaly_deg": 131.3927,
      "mean_motion_rev_day": 15.26137525
    }
  ]
}